H-2A R/B                
1 28932U 06002B   26194.02198656  .00005019  00000+0  23980-3 0  9990
2 28932  98.2583 352.1981 0050674 173.3647 186.8267 15.18424873113447
RESURS-DK 1             
1 29228U 06021A   26194.21136031  .00001004  00000+0  62348-4 0  9992
2 29228  69.9309 272.1825 0006977 273.2712  86.7656 15.13315244106511
CZ-4B R/B               
1 29507U 06046C   26194.16077515  .00002315  00000+0  11591-3 0  9993
2 29507  97.5442 238.6879 0032369 189.2203 170.8440 15.17971389 79075
CZ-2C R/B               
1 31114U 07010B   26194.26672715  .00000026  00000+0  31042-4 0  9997
2 31114  98.4117 301.3447 0057804 289.4901  70.0038 14.20281507997543
COSMO-SKYMED 1          
1 31598U 07023A   26194.26724916  .00001352  00000+0  12205-3 0  9990
2 31598  97.8844  26.3437 0001260 103.3433 256.7929 14.97213794 33697
COSMOS 2428             
1 31792U 07029A   26194.26737585  .00000199  00000+0  13244-3 0  9990
2 31792  70.9381 299.7190 0007182  85.0806 275.1135 14.12933304981837
SL-16 R/B               
1 31793U 07029B   26194.19134207  .00000083  00000+0  67777-4 0  9998
2 31793  70.9746 268.5653 0002010 256.2386 132.7213 14.14851052983121
KORONAS-FOTON           
1 33504U 09003A   26193.96873283  .00008913  00000+0  17982-3 0  9994
2 33504  82.4300 145.3551 0012324  69.0664 291.1902 15.46264563965085
CZ-2C R/B               
1 37731U 11030B   26194.32593295  .00000538  00000+0  74016-4 0  9993
2 37731  97.8669 149.2435 0050899 302.4085 181.6663 14.81530353808694
H-2A R/B                
1 38341U 12025E   26193.97849247  .00000655  00000+0  63909-4 0  9996
2 38341  98.4848 171.2548 0042372 262.6189  97.0213 14.95834714766942
SHIJIAN-16 (SJ-16)      
1 39358U 13057A   26194.31253539  .00000676  00000+0  68254-4 0  9994
2 39358  74.9737 307.1996 0015823 169.3726 190.7800 14.92667691690242
SL-4 R/B                
1 39679U 14021B   26193.91861972  .00007119  00000+0  14899-3 0  9997
2 39679  51.6063  84.6655 0089796 200.0922 159.6520 15.42452959675580
ALOS-2                  
1 39766U 14029A   26194.24545168  .00001066  00000+0  14967-3 0  9996
2 39766  97.9229 291.0365 0001599  93.9918 266.1477 14.79472347655434
YAOGAN-29               
1 41038U 15069A   26194.28777490 -.00000047  00000+0  90946-6 0  9998
2 41038  98.0024 222.9604 0000905  13.1564 346.9673 14.83104066574490
ASTRO-H (HITOMI)        
1 41337U 16012A   26194.26717081  .00001486  00000+0  82001-4 0  9995
2 41337  30.9986 265.7423 0009601 155.9263 204.1825 15.10628089571231
HXMT (HUIYAN)           
1 42758U 17034A   26194.04951128  .00002729  00000+0  13906-3 0  9994
2 42758  43.0152  39.0112 0032502 307.6003  52.1896 15.18678216501596
SAOCOM 1A               
1 43641U 18076A   26194.26261924 -.00000215  00000+0 -20459-4 0  9997
2 43641  97.8885  20.6325 0001446  84.7941 275.3437 14.82144479419965
H-2A R/B                
1 43682U 18084L   26194.15285543  .00013747  00000+0  28042-3 0  9999
2 43682  98.8540  78.7338 0020701 308.1441  51.7937 15.46149333425132
SAOCOM 1B               
1 46265U 20059A   26194.29383468  .00000422  00000+0  59601-4 0  9996
2 46265  97.8890  19.7595 0001597  80.3761 279.7632 14.82158677317353
CSS (TIANHE)            
1 48274U 21035A   26193.33050829  .00000806  00000+0  14701-4 0  9997
2 48274  41.4686 169.1964 0002428 290.9815  69.0763 15.58035041297092
COSMOS 2550             
1 48865U 21056A   26194.30301346  .00000568  00000+0  23091-4 0  9994
2 48865  67.1435  20.9070 0008486 270.6818  89.3364 15.33813733282726
CZ-2C R/B               
1 52794U 22058K   26193.94606983  .00034864  00000+0  36103-3 0  9990
2 52794  50.1858  29.2996 0030465  13.2357 346.9410 15.63734509229678
CZ-2C R/B               
1 54039U 22132E   26194.23238342  .00049474  00000+0  33544-3 0  9999
2 54039  97.2888 202.4811 0009808 351.4745   8.6351 15.74791056210042
GSLV R/B                
1 54149U 22138AN  26194.31562600  .00001308  00000+0  10948-3 0  9990
2 54149  87.3818 124.2105 0023718  58.3676 301.9865 14.97377522202723
XRISM                   
1 57800U 23137A   26194.25675748  .00002069  00000+0  10993-3 0  9993
2 57800  31.0006 190.7052 0007865 227.1013 132.8966 15.12661221156811
ACS3                    
1 59588U 24077B   26192.74048558  .00010248  00000+0  71307-2 0  9990
2 59588  97.1723 106.0854 0121011  40.7850 320.2298 13.95349463111466
SPACEMOBILE-003         
1 61045U 24163A   26193.12443383  .00000008  00000+0  15017-4 0  9996
2 61045  52.9645 194.7701 0003953 176.8899 183.2120 15.20757146101564
SPACEMOBILE-005         
1 61046U 24163B   26194.09371225  .00000320  00000+0  29081-4 0  9992
2 61046  52.9757 190.2542 0008516 188.4778 171.6074 15.20746160101707
SPACEMOBILE-001         
1 61047U 24163C   26192.44911905  .00000309  00000+0  28551-4 0  9993
2 61047  52.9736 197.5273 0007475 183.3179 176.7767 15.20792937101458
SPACEMOBILE-002         
1 61048U 24163D   26194.07601240  .00013464  00000+0  61597-3 0  9995
2 61048  52.9787 190.0866 0006379 191.8159 168.2686 15.20818302101704
